{
  "links" : {
    "next" : "https://api.nasa.gov/neo/rest/v1/feed?start_date=2007-10-16&end_date=2007-10-16&detailed=true&api_key=t0TVs3DtDT2H8Oy2Zy8m2eVrNsAVKAexjcZXUckd",
    "prev" : "https://api.nasa.gov/neo/rest/v1/feed?start_date=2007-10-14&end_date=2007-10-14&detailed=true&api_key=t0TVs3DtDT2H8Oy2Zy8m2eVrNsAVKAexjcZXUckd",
    "self" : "https://api.nasa.gov/neo/rest/v1/feed?start_date=2007-10-15&end_date=2007-10-15&detailed=true&api_key=t0TVs3DtDT2H8Oy2Zy8m2eVrNsAVKAexjcZXUckd"
  },
  "element_count" : 6,
  "near_earth_objects" : {
    "2007-10-15" : [ {
      "links" : {
        "self" : "https://api.nasa.gov/neo/rest/v1/neo/3092245?api_key=t0TVs3DtDT2H8Oy2Zy8m2eVrNsAVKAexjcZXUckd"
      },
      "neo_reference_id" : "3092245",
      "name" : "(1999 VW25)",
      "nasa_jpl_url" : "http://ssd.jpl.nasa.gov/sbdb.cgi?sstr=3092245",
      "absolute_magnitude_h" : 24.522,
      "estimated_diameter" : {
        "kilometers" : {
          "estimated_diameter_min" : 0.0331249306,
          "estimated_diameter_max" : 0.0740695965
        },
        "meters" : {
          "estimated_diameter_min" : 33.1249305657,
          "estimated_diameter_max" : 74.0695964949
        },
        "miles" : {
          "estimated_diameter_min" : 0.0205828712,
          "estimated_diameter_max" : 0.0460246992
        },
        "feet" : {
          "estimated_diameter_min" : 108.6775971973,
          "estimated_diameter_max" : 243.0104949644
        }
      },
      "is_potentially_hazardous_asteroid" : false,
      "close_approach_data" : [ {
        "close_approach_date" : "2007-10-15",
        "epoch_date_close_approach" : 1192431600000,
        "relative_velocity" : {
          "kilometers_per_second" : "11.8061253803",
          "kilometers_per_hour" : "42502.0513690321",
          "miles_per_hour" : "26409.1218631633"
        },
        "miss_distance" : {
          "astronomical" : "0.3031858353",
          "lunar" : "117.9392852783",
          "kilometers" : "45355952",
          "miles" : "28182882"
        },
        "orbiting_body" : "Earth"
      } ],
      "orbital_data" : {
        "orbit_id" : "11",
        "orbit_determination_date" : "2017-04-06 09:17:13",
        "orbit_uncertainty" : "7",
        "minimum_orbit_intersection" : ".0441079",
        "jupiter_tisserand_invariant" : "6.423",
        "epoch_osculation" : "2458000.5",
        "eccentricity" : ".1115856274108377",
        "semi_major_axis" : ".9295462113866719",
        "inclination" : "10.77225156122402",
        "ascending_node_longitude" : "232.1482445359872",
        "orbital_period" : "327.3443916119984",
        "perihelion_distance" : ".8258222141817229",
        "perihelion_argument" : "354.6156871192312",
        "aphelion_distance" : "1.033270208591621",
        "perihelion_time" : "2457868.519019384334",
        "mean_anomaly" : "145.1472951397233",
        "mean_motion" : "1.09975918092621",
        "equinox" : "J2000"
      }
    }, {
      "links" : {
        "self" : "https://api.nasa.gov/neo/rest/v1/neo/3177232?api_key=t0TVs3DtDT2H8Oy2Zy8m2eVrNsAVKAexjcZXUckd"
      },
      "neo_reference_id" : "3177232",
      "name" : "(2004 FG29)",
      "nasa_jpl_url" : "http://ssd.jpl.nasa.gov/sbdb.cgi?sstr=3177232",
      "absolute_magnitude_h" : 26.0,
      "estimated_diameter" : {
        "kilometers" : {
          "estimated_diameter_min" : 0.0167708462,
          "estimated_diameter_max" : 0.0375007522
        },
        "meters" : {
          "estimated_diameter_min" : 16.7708462163,
          "estimated_diameter_max" : 37.5007521798
        },
        "miles" : {
          "estimated_diameter_min" : 0.0104209175,
          "estimated_diameter_max" : 0.0233018799
        },
        "feet" : {
          "estimated_diameter_min" : 55.0224631002,
          "estimated_diameter_max" : 123.0339677816
        }
      },
      "is_potentially_hazardous_asteroid" : false,
      "close_approach_data" : [ {
        "close_approach_date" : "2007-10-15",
        "epoch_date_close_approach" : 1192431600000,
        "relative_velocity" : {
          "kilometers_per_second" : "16.3226954428",
          "kilometers_per_hour" : "58761.7035941239",
          "miles_per_hour" : "36512.2374360266"
        },
        "miss_distance" : {
          "astronomical" : "0.4682755899",
          "lunar" : "182.1591949463",
          "kilometers" : "70053032",
          "miles" : "43528936"
        },
        "orbiting_body" : "Earth"
      } ],
      "orbital_data" : {
        "orbit_id" : "8",
        "orbit_determination_date" : "2017-04-06 09:12:59",
        "orbit_uncertainty" : "6",
        "minimum_orbit_intersection" : ".010158",
        "jupiter_tisserand_invariant" : "6.636",
        "epoch_osculation" : "2458000.5",
        "eccentricity" : ".4925114066738209",
        "semi_major_axis" : ".8786153704335991",
        "inclination" : "3.509213057777882",
        "ascending_node_longitude" : "183.2006628650848",
        "orbital_period" : "300.813014370986",
        "perihelion_distance" : ".445887278416107",
        "perihelion_argument" : "142.2175296688837",
        "aphelion_distance" : "1.311343462451091",
        "perihelion_time" : "2457976.421802461408",
        "mean_anomaly" : "28.81574499700018",
        "mean_motion" : "1.196756731927895",
        "equinox" : "J2000"
      }
    }, {
      "links" : {
        "self" : "https://api.nasa.gov/neo/rest/v1/neo/3388322?api_key=t0TVs3DtDT2H8Oy2Zy8m2eVrNsAVKAexjcZXUckd"
      },
      "neo_reference_id" : "3388322",
      "name" : "(2007 TK8)",
      "nasa_jpl_url" : "http://ssd.jpl.nasa.gov/sbdb.cgi?sstr=3388322",
      "absolute_magnitude_h" : 21.0,
      "estimated_diameter" : {
        "kilometers" : {
          "estimated_diameter_min" : 0.1677084622,
          "estimated_diameter_max" : 0.3750075218
        },
        "meters" : {
          "estimated_diameter_min" : 167.7084621628,
          "estimated_diameter_max" : 375.0075217981
        },
        "miles" : {
          "estimated_diameter_min" : 0.1042091748,
          "estimated_diameter_max" : 0.2330187988
        },
        "feet" : {
          "estimated_diameter_min" : 550.2246310023,
          "estimated_diameter_max" : 1230.3396778159
        }
      },
      "is_potentially_hazardous_asteroid" : false,
      "close_approach_data" : [ {
        "close_approach_date" : "2007-10-15",
        "epoch_date_close_approach" : 1192431600000,
        "relative_velocity" : {
          "kilometers_per_second" : "2.0066371996",
          "kilometers_per_hour" : "7223.893918605",
          "miles_per_hour" : "4488.6467518132"
        },
        "miss_distance" : {
          "astronomical" : "0.2624459178",
          "lunar" : "102.091468811",
          "kilometers" : "39261352",
          "miles" : "24395874"
        },
        "orbiting_body" : "Earth"
      } ],
      "orbital_data" : {
        "orbit_id" : "26",
        "orbit_determination_date" : "2017-04-06 09:05:51",
        "orbit_uncertainty" : "1",
        "minimum_orbit_intersection" : ".262164",
        "jupiter_tisserand_invariant" : "4.534",
        "epoch_osculation" : "2458000.5",
        "eccentricity" : ".1599176332106509",
        "semi_major_axis" : "1.496726139341706",
        "inclination" : "3.097240631207376",
        "ascending_node_longitude" : "217.0541013129775",
        "orbital_period" : "668.8241433438919",
        "perihelion_distance" : "1.257373237573666",
        "perihelion_argument" : "171.8682180981347",
        "aphelion_distance" : "1.736079041109747",
        "perihelion_time" : "2457743.354029255359",
        "mean_anomaly" : "138.4108967795924",
        "mean_motion" : ".5382580811154979",
        "equinox" : "J2000"
      }
    } ]
  }
}